#dP2021  3 22 18  0  0.00000000      96 __u+U ITR00 EXT  IAC
## 2150 151200.00000000   900.00000000 59295 0.7500000000000
+  117   C06C07C08C09C10C11C12C13C14C16C19C20C21C22C23C24C25
+        C26C27C28C29C30C32C33C34C35C36C37C38C39C40C41C42C43
+        C44C45C46E01E02E03E04E05E07E08E09E11E12E13E14E15E18
+        E19E21E24E25E26E27E30E31E33E36G01G02G03G04G05G06G07
+        G08G09G10G11G12G13G14G15G16G17G18G19G20G21G22G23G24
+        G25G26G27G28G29G30G31G32J01J02J03R01R02R03R04R05R07
+        R08R09R11R12R13R14R15R16R17R18R19R20R21R22R24  0  0
++        10  9  8 10  8 10 10 11  9 14  8  8  9  8  8  8  9
++         7  8  7  8  9  8 10  8  9 10 10 10  9 12  8  9 10
++        10  8 10  7  8  5  9  6  8  8  8  8  9  6  8  7  7
++         9  8  7  6  7  8  8  7  8  7  6  7  8  7  6  8  8
++         8  6  7  9  8  8  6  8  8  6  7  7  8  8  7  7  7
++         6  7  7  6  9  7  8  7  9 10 11  9  7  9  8  8  9
++         8  8  9  7  8  9  8 10 10  7  9  9  9  8  8  0  0
%c M  cc GPS ccc cccc cccc cccc cccc ccccc ccccc ccccc ccccc
%c cc cc ccc ccc cccc cccc cccc cccc ccccc ccccc ccccc ccccc
%f  0.0000000  0.000000000  0.00000000000  0.000000000000000
%f  0.0000000  0.000000000  0.00000000000  0.000000000000000
%i    0    0    0    0      0      0      0      0         0
%i    0    0    0    0      0      0      0      0         0
/* IAC                                ULTRA-RAPID PREDICTION
/* S/V CLOCKS ARE ALIGNED TO GNSS TIME                      
/* G:C1WC2W R:C1PC2P E:C1XC5X C:C2IC6I J:C1CC2S             
/* PCV:IGS14_2134 OL/AL:FES2004  NONE     YN ORB:CoN CLK:CoN
*  2021 03 22 20 45  0.00000000
PC06  -7437.837338  26772.002134  32292.831678    202.751611
PC07 -24399.134938  26232.815591 -22361.444897    -43.848710
PC08 -16412.622032  37779.376112  -7939.441389   -897.984862
PC09   5816.814485  34529.496118  24077.026887    649.806085
PC10  -9224.735114  28134.594746 -29952.948505    -67.726475
PC11  10080.941561  24761.353803  -7876.564320   -853.451983
PC12  -4706.313301  17721.240175 -20997.190538    884.900038
PC13  -7400.133953  40914.568105   6260.187796    190.985982
PC14   5296.948010  15396.452261  22687.271179    276.521293
PC16  -3057.007432  28764.382016  30857.032588   -746.747398
PC19 -15940.915379 -12117.279175 -19414.321419    771.228660
PC20   4199.779187 -15964.310127 -22475.677123   -935.343061
PC21 -22850.580738  10404.204548  12226.103078   -899.194412
PC22 -27444.323704  -1186.142315  -4995.209032   -928.241759
PC23  17450.736542   -304.694430 -21776.914508   -879.517532
PC24  -7901.483118  26086.549939  -5930.693569   -790.391544
PC25   7732.041471  17725.633098 -20118.672082   -944.350280
PC26 -16987.225432  19517.387383  10396.792834    931.697480
PC27  12492.571854  -9788.807956  22935.486711    502.989507
PC28  20185.244180   9255.610974  16903.587860    -95.289207
PC29 -16880.506562 -22195.554501   -973.403427    368.568382
PC30  -2906.834830 -22760.417387  15860.752079    454.427769
PC32  22769.310373 -10552.480702 -12175.224947   -918.945473
PC33  15889.710644  12124.073590  19478.074017   -945.042115
PC34   3451.366381  23075.896411 -15337.066180   -713.026646
PC35 -20562.001449  -8793.501612 -16671.036825   -362.390365
PC36  -7055.964046 -18193.775324  19967.969137   -738.762042
PC37  17687.159905 -18509.065317 -11117.878128   -880.904475
PC38 -14561.249818  39237.074546  -4609.132239    137.480504
PC39   -490.226901  29128.548811  30547.006409     29.621976
PC40 -14032.120718  23228.350714 -32314.754033    143.597716
PC41  27370.994457   1351.733545   5336.874057   -934.443749
PC42  -5032.956201  16025.021785  22334.346405   -936.975040
PC43  16526.595426  22499.962161    488.749812   -651.418067
PC44 -12376.233899  10144.623371 -22868.863203     99.293896
PC45 -17360.723650    458.818838  21837.308105    393.747294
PC46   7254.743161 -26101.932172   6775.432833    350.861280
PE01 -25549.282680  10905.339760  10204.156601  -1071.092421
PE02  25567.284552 -10999.663580 -10110.374653    206.869844
PE03  25929.385562   -240.104937 -14262.818376   -411.801920
PE04 -10880.798496  13765.782892  23846.221571   -734.417738
PE05  25987.528351  13639.470037   3845.162297   -294.909620
PE07 -10901.930677 -19410.997809 -19503.933634   -516.108399
PE08  10421.637305 -13856.720495 -23985.843853   6029.176580
PE09  11180.148169  19246.260895  19511.819409   5726.028053
PE11   5682.804878  28967.536820   2347.212194   6177.549088
PE12  -7304.537056  23706.851560 -16163.391223   5297.187603
PE13  -5504.950229 -29012.928963  -1922.022237    413.936118
PE14  -3642.636489 -19008.521381  15605.815534  -1370.910811
PE15   7174.891267 -23712.454333  16201.150061    823.320213
PE18  -6011.928249  20099.226077 -23629.948426  -1499.274613
PE19 -26780.649672  -1567.929189  12514.593175    233.428271
PE21 -18121.131033  -5403.015890  22764.577139   -655.088610
PE24   -807.971890  19531.943707 -22235.012943   -806.836959
PE25  17997.870123   5557.943903 -22835.518966   -529.097980
PE26 -15170.228481 -16562.906202 -19269.176297   2011.575876
PE27     63.687405 -19202.108296  22527.887122      4.849943
PE30  18790.203409 -21340.003644   8248.759659   3085.749313
PE31 -18077.597034  21614.800902  -9052.770447   -479.422841
PE33 -15596.955930   4492.813492 -24744.353932   -466.784439
PE36  14932.924546  17221.614571  18899.641079   -183.508981
PG01  13253.721212 -13518.576542  18231.627662    735.039201
PG02 -13333.673097 -11702.049820 -19098.243885   -588.651512
PG03  22874.661780 -13133.962271  -2635.198030   -115.463408
PG04  17144.684229  -4625.510818 -19763.553142   -187.716345
PG05 -22935.552517   1260.378098 -13646.999455    -36.950926
PG06  -6484.465807 -22651.626124 -12139.676034      2.296645
PG07   7006.462324 -24233.290803  -7114.944227     98.453829
PG08  21983.211801   2014.031925  14984.561362    -14.726850
PG09   6942.949787 -13816.069312 -21650.785188   -333.206373
PG10    966.598398  15873.256364  21344.058201    -86.477139
PG11  13775.282150  -8305.413486  20713.844036      8.509199
PG12 -24663.483986   9610.623793    379.271678    -17.618974
PG13 -22207.055192 -11930.879658   8433.052788    110.937829
PG14   1095.222408 -16431.060122  20824.797215     99.571177
PG15 -22224.478760    576.415492  14428.772436   -161.335453
PG16  21646.114598   3141.456383 -15630.678056   -298.049990
PG17  -9427.438602 -19977.881942  15173.016659    414.045456
PG18  -5214.137167  25689.452931  -4086.865249    351.021139
PG19 -16174.169744 -19804.180196   7086.932919    -22.875944
PG20 -13468.486579  19483.573156  11651.185464    523.944161
PG21  15347.584264  -4934.287845  21774.244979    105.215882
PG22  24066.387651  -8506.189175   7188.843451   -654.779637
PG23 -10804.655129  18166.079567  16037.941125    116.767841
PG24 -14902.706401   7905.452889  20186.611941      0.732745
PG25 -16696.557057  17106.742705 -11536.924516    103.999331
PG26  14083.138180   9392.257673 -20579.960977     61.762480
PG27  23387.578400  12148.676852   4474.538431    -98.916775
PG28  -1178.978442 -15584.539121  22054.716332    598.221069
PG29  -7034.194081  13095.981358 -22051.902633   -316.610138
PG30  -1193.565168 -25934.408425   5047.919470   -402.222643
PG31   8265.934073  20511.118387 -14445.064787   -107.150080
PG32  12145.478901  19528.493275  13537.526235     21.582496
PJ01 -29719.027600  22966.081563  24098.546173   -357.448668
PJ02 -35030.192303  23487.054034   4966.087940      3.873130
PJ03 -21364.078753  20691.828191 -25298.839482     -2.121226
PR01 -24159.835500  -5130.599575  -6402.633344     76.773273
PR02 -20735.819259   4437.000369  14177.171394    471.822872
PR03  -4525.690842  10459.057942  22862.185532     32.859694
PR04  13998.085659  10310.526066  18698.102227     79.053329
PR05  24768.792633   4619.212761   4067.209446     68.619184
PR07   3925.882863 -10517.560397 -22867.249907    -42.554946
PR08 -14062.970401 -10348.374002 -18529.834005    -58.091091
PR09  17135.006413 -16565.328645  -8985.378427    -15.818390
PR11  -1978.561611 -14410.494440  20958.183649      2.025654
PR12 -13725.492792   1575.412006  21457.154511    214.716604
PR13 -17079.188243  16349.479854   9548.724928    -52.353648
PR14 -10463.419855  21641.864704  -8543.783264     62.306416
PR15   2151.817677  14205.019763 -21062.110527    104.782000
PR16  14314.440955  -2834.831931 -20984.564650    -12.840267
PR17   1651.779709  20579.453417 -14949.917634    410.169978
PR18  10635.541532  23194.001358   1133.903571     70.681965
PR19  13563.477788  14446.641005  16066.462155   -136.758977
PR20   8914.313736  -5496.233545  23266.174848    -45.803034
PR21  -2359.510612 -21180.857101  14033.429846   -196.321828
PR22 -10907.148874 -22887.348364  -2267.637623   -103.951048
PR24  -8903.231874   6574.672208 -22963.023497     35.996073
EOF
